GLOBALSTAR M023         
1 25621U 99004A   25113.75250708 -.00000112  00000+0 -47360-4 0  9993
2 25621  52.0103 219.1968 0009280   8.5844 155.8851 12.62505335208851
GLOBALSTAR M040         
1 25622U 99004B   25113.78653130 -.00000058  00000+0  25710-3 0  9995
2 25622  51.9910 223.1669 0000477 226.0910 301.6947 12.62008451208381
GLOBALSTAR M036         
1 25623U 99004C   25113.89142499 -.00000017  00000+0  96016-3 0  9991
2 25623  52.0001  23.4324 0010806 311.9869 167.5823 11.86595156172513
GLOBALSTAR M038         
1 25624U 99004D   25113.69978730 -.00000068  00000+0  22481-3 0  9996
2 25624  51.9967 228.4889 0001224 293.6944 213.4186 12.32525567195654
GLOBALSTAR M041         
1 25650U 99012B   25114.67747602 -.00000040  00000+0  58345-3 0  9993
2 25650  52.0036 316.1900 0001441 181.7947 178.2884 11.96671462172127
GLOBALSTAR M037         
1 25652U 99012D   25113.70136644 -.00000054  00000+0  27715-3 0  9998
2 25652  52.0028 349.9931 0002814  71.0580 328.9243 12.62443737204391
